{
    "links": {
        "self": "http://www.neowsapp.com/rest/v1/neo/3476776?api_key=iIulBulltgU6a56xZRHN4H3l9WmuAYTsLGpBGhQ2"
    },
    "id": "3476776",
    "neo_reference_id": "3476776",
    "name": "(2009 WC)",
    "designation": "2009 WC",
    "nasa_jpl_url": "http://ssd.jpl.nasa.gov/sbdb.cgi?sstr=3476776",
    "absolute_magnitude_h": 27.7,
    "estimated_diameter": {
        "kilometers": {
            "estimated_diameter_min": 0.0076657557,
            "estimated_diameter_max": 0.0171411509
        },
        "meters": {
            "estimated_diameter_min": 7.6657557353,
            "estimated_diameter_max": 17.1411509231
        },
        "miles": {
            "estimated_diameter_min": 0.0047632783,
            "estimated_diameter_max": 0.0106510141
        },
        "feet": {
            "estimated_diameter_min": 25.1501180466,
            "estimated_diameter_max": 56.2373735944
        }
    },
    "is_potentially_hazardous_asteroid": false,
    "close_approach_data": [
        {
            "close_approach_date": "2009-11-21",
            "close_approach_date_full": "2009-Nov-21 23:16",
            "epoch_date_close_approach": 1258845360000,
            "relative_velocity": {
                "kilometers_per_second": "6.7993645106",
                "kilometers_per_hour": "24477.712238066",
                "miles_per_hour": "15209.4984737027"
            },
            "miss_distance": {
                "astronomical": "0.0170578128",
                "lunar": "6.6354891792",
                "kilometers": "2551812.461738736",
                "miles": "1585622.7374211168"
            },
            "orbiting_body": "Earth"
        },
        {
            "close_approach_date": "2016-11-25",
            "close_approach_date_full": "2016-Nov-25 19:20",
            "epoch_date_close_approach": 1480101600000,
            "relative_velocity": {
                "kilometers_per_second": "9.0540037319",
                "kilometers_per_hour": "32594.4134348972",
                "miles_per_hour": "20252.9009479226"
            },
            "miss_distance": {
                "astronomical": "0.0913755451",
                "lunar": "35.5450870439",
                "kilometers": "13669586.917048937",
                "miles": "8493887.4434598506"
            },
            "orbiting_body": "Mars"
        },
        {
            "close_approach_date": "2065-10-20",
            "close_approach_date_full": "2065-Oct-20 23:45",
            "epoch_date_close_approach": 3023307900000,
            "relative_velocity": {
                "kilometers_per_second": "9.4857523248",
                "kilometers_per_hour": "34148.7083694552",
                "miles_per_hour": "21218.679375454"
            },
            "miss_distance": {
                "astronomical": "0.0799943244",
                "lunar": "31.1177921916",
                "kilometers": "11966980.542329028",
                "miles": "7435936.9000274664"
            },
            "orbiting_body": "Mars"
        },
        {
            "close_approach_date": "2067-10-24",
            "close_approach_date_full": "2067-Oct-24 23:39",
            "epoch_date_close_approach": 3086725140000,
            "relative_velocity": {
                "kilometers_per_second": "16.4412379374",
                "kilometers_per_hour": "59188.4565745673",
                "miles_per_hour": "36777.4051421249"
            },
            "miss_distance": {
                "astronomical": "0.3377549609",
                "lunar": "131.3866797901",
                "kilometers": "50527422.732573283",
                "miles": "31396284.6209579854"
            },
            "orbiting_body": "Earth"
        },
        {
            "close_approach_date": "2086-02-23",
            "close_approach_date_full": "2086-Feb-23 15:59",
            "epoch_date_close_approach": 3665318340000,
            "relative_velocity": {
                "kilometers_per_second": "17.3946205033",
                "kilometers_per_hour": "62620.633812029",
                "miles_per_hour": "38910.0266039244"
            },
            "miss_distance": {
                "astronomical": "0.3868005019",
                "lunar": "150.4653952391",
                "kilometers": "57864531.199170953",
                "miles": "35955352.4153190314"
            },
            "orbiting_body": "Earth"
        }
    ],
    "orbital_data": {
        "orbit_id": "7",
        "orbit_determination_date": "2017-04-06 08:59:11",
        "first_observation_date": "2009-11-16",
        "last_observation_date": "2009-11-18",
        "data_arc_in_days": 2,
        "observations_used": 23,
        "orbit_uncertainty": "8",
        "minimum_orbit_intersection": ".0142003",
        "jupiter_tisserand_invariant": "4.489",
        "epoch_osculation": "2455152.5",
        "eccentricity": ".3547869576351483",
        "semi_major_axis": "1.489868471465866",
        "inclination": "5.374217837161358",
        "ascending_node_longitude": "54.77966557527157",
        "orbital_period": "664.232806254883",
        "perihelion_distance": ".9612825691979628",
        "perihelion_argument": "36.87064825252823",
        "aphelion_distance": "2.01845437373377",
        "perihelion_time": "2455184.046106623705",
        "mean_anomaly": "342.9026837012685",
        "mean_motion": ".5419786505724905",
        "equinox": "J2000",
        "orbit_class": {
            "orbit_class_type": "APO",
            "orbit_class_description": "Near-Earth asteroid orbits which cross the Earth’s orbit similar to that of 1862 Apollo",
            "orbit_class_range": "a (semi-major axis) > 1.0 AU; q (perihelion) < 1.017 AU"
        }
    },
    "is_sentry_object": false
}